STARLINK-2460           
1 48120U 21027AE  26068.55193043  .00001444  00000+0  60877-4 0  9993
2 48120  53.1595 168.4494 0001173  88.5814 271.5321 15.30193110272463
TRANSPORTER-11 OBJECT A 
1 60468U 24149A   26068.74646182  .00010774  00000+0  36054-3 0  9993
2 60468  97.3780 149.0949 0003110 191.0010 169.1164 15.31141332 86830
